
ALSAT-1B
1 41785U 16059C   26170.27908049  .00000548  00000+0  94201-4 0  9997
2 41785  97.7745 178.9527 0008232 212.4665 147.6038 14.72277421520885

CARTOSAT-2D
1 41948U 17008A   26170.33198979  .00000122  00000+0  89731-5 0  9994
2 41948  97.4100 229.5986 0003954 224.5854 135.5063 15.19215066517902

CARTOSAT-2E
1 42767U 17036C   26170.28391112  .00002585  00000+0  12580-3 0  9994
2 42767  97.4269 230.0519 0002252 309.7065  50.3971 15.19267590498467

CARTOSAT-2F
1 43111U 18004A   26170.31614347  .00002137  00000+0  10472-3 0  9997
2 43111  97.4778 229.9304 0000949 198.4033 161.7167 15.19225599467658

FORMOSAT-5
1 42920U 17049A   26170.25972868  .00000106  00000+0  37786-4 0  9992
2 42920  98.2254 245.5235 0012653  78.6195 281.6420 14.50899507466971

GAOFEN-1 02
1 43259U 18031A   26170.33161304  .00000414  00000+0  66982-4 0  9996
2 43259  98.0522 232.8531 0003661  28.7853 331.3558 14.76458477443017

GAOFEN-1 03
1 43260U 18031B   26170.30974441  .00000537  00000+0  84620-4 0  9994
2 43260  98.0517 232.6893 0003693  74.8550 285.3068 14.76471673443009

GAOFEN-1 04
1 43262U 18031D   26170.28548946  .00000846  00000+0  12901-3 0  9995
2 43262  98.0524 232.8563 0002181  75.9847 284.1605 14.76437934442990

GAOFEN-3
1 41727U 16049A   26170.30407287  .00000162  00000+0  62431-4 0  9996
2 41727  98.4007 178.0585 0001433  98.6457 261.4895 14.42216180518957

GAOFEN-5 01
1 43461U 18043A   26169.91136598  .00000252  00000+0  62008-4 0  9998
2 43461  98.4569 141.5337 0003028  80.5544 279.5998 14.60606556431943

GAOFEN-6
1 43484U 18048A   26170.30736729  .00001691  00000+0  24921-3 0  9994
2 43484  97.9706 233.0275 0011801 158.7359 201.4343 14.76600497433702

GOKTURK 1A
1 41875U 16073A   26170.29785674  .00000470  00000+0  10124-3 0  9997
2 41875  98.1247  64.9395 0001439  73.8443 286.2917 14.62776621509135

LAPAN-A3
1 41603U 16040E   26170.27977263  .00002804  00000+0  89880-4 0  9994
2 41603  97.1490 166.3567 0010622  18.7688 341.3945 15.33115977555139

PATHFINDER 1
1 41787U 16059E   26170.25001214  .00000430  00000+0  83305-4 0  9998
2 41787  97.8166 169.4332 0027963 196.8655 163.1624 14.67665129520019

RESOURCESAT-2A
1 41877U 16074A   26170.25264255  .00000282  00000+0  14883-3 0  9990
2 41877  98.7526 243.7404 0003301  81.0045 279.1506 14.21617766494597

SCATSAT 1
1 41790U 16059H   26170.17454333  .00000851  00000+0  11868-3 0  9998
2 41790  98.1190 233.9612 0053464 240.9347 118.6503 14.79529120101880

SENTINEL-2B
1 42063U 17013A   26170.30539399  .00000116  00000+0  60852-4 0  9996
2 42063  98.5690 245.0503 0001188  88.2703 271.8616 14.30817804484945

SENTINEL-3B
1 43437U 18039A   26170.15334706  .00000072  00000+0  47868-4 0  9992
2 43437  98.6248 237.6575 0000717  92.4527 267.6735 14.26735196424403

SENTINEL-5P
1 42969U 17064A   26170.24597491  .00000035  00000+0  37676-4 0  9995
2 42969  98.7925 112.3626 0000995  87.0161 273.1129 14.19519252449853

SKYSAT-C1
1 41601U 16040C   26170.04008592  .00007248  00000+0  20670-3 0  9995
2 41601  96.9557 201.6597 0003322  54.8767 305.2789 15.36326499558158

SKYSAT-C10
1 42988U 17068B   26170.18325516  .00007533  00000+0  22666-3 0  9992
2 42988  97.4514 307.0495 0001109  99.6985 260.4384 15.34665867482662

SKYSAT-C11
1 42987U 17068A   26169.91996594  .00021245  00000+0  28508-3 0  9997
2 42987  97.4361 318.8258 0000570  96.3617 263.7704 15.57969641483514

SKYSAT-C2
1 41773U 16058D   26169.81672715  .00009719  00000+0  22904-3 0  9998
2 41773  97.0165 191.8504 0004569  67.4437 292.7294 15.42100866545300

SKYSAT-C3
1 41774U 16058E   26170.07693242  .00018719  00000+0  30566-3 0  9990
2 41774  96.9000 200.8504 0001426  99.1434 260.9982 15.52607591546407

SKYSAT-C4
1 41771U 16058B   26169.94755780  .00012955  00000+0  24404-3 0  9997
2 41771  96.9169 191.6461 0001543 136.6942 223.4431 15.48631088545742

SKYSAT-C5
1 41772U 16058C   26169.99505362  .00006082  00000+0  18428-3 0  9995
2 41772  97.0465 210.5550 0000935 298.2824  61.8326 15.34491256544025

SKYSAT-C6
1 42992U 17068F   26170.10341637  .00007382  00000+0  22512-3 0  9993
2 42992  97.4577 307.7282 0004509 132.7401 227.4222 15.34237733482612

SKYSAT-C7
1 42991U 17068E   26169.88483293  .00008289  00000+0  23147-3 0  9992
2 42991  97.4543 307.5440 0007195 101.8108 258.3943 15.36953935482639

SKYSAT-C8
1 42990U 17068D   26169.89115956  .00008125  00000+0  22675-3 0  9994
2 42990  97.4532 306.5607 0001447  95.7515 264.3894 15.37002946482570

SKYSAT-C9
1 42989U 17068C   26170.31610034  .00011557  00000+0  27628-3 0  9994
2 42989  97.4434 308.1389 0009454 126.3747 233.8373 15.41606942483089
