OBJECT_NAME,OBJECT_ID,EPOCH,MEAN_MOTION,ECCENTRICITY,INCLINATION,RA_OF_ASC_NODE,ARG_OF_PERICENTER,MEAN_ANOMALY,EPHEMERIS_TYPE,CLASSIFICATION_TYPE,NORAD_CAT_ID,ELEMENT_SET_NO,REV_AT_EPOCH,BSTAR,MEAN_MOTION_DOT,MEAN_MOTION_DDOT
SKYSAT-C1,2016-040C,2026-06-19T00:57:43.423488,15.36326499,.00033224,96.9557,201.6597,54.8767,305.2789,0,U,41601,999,55815,.20669978E-3,.7248E-4,0
LAPAN-A3,2016-040E,2026-06-19T06:42:52.355232,15.33115977,.00106225,97.1490,166.3567,18.7688,341.3945,0,U,41603,999,55513,.89880488E-4,.2804E-4,0
GAOFEN-3,2016-049A,2026-06-19T07:17:51.895968,14.42216180,.00014334,98.4007,178.0585,98.6457,261.4895,0,U,41727,999,51895,.62431112E-4,.162E-5,0
SKYSAT-C4,2016-058B,2026-06-18T22:44:28.993920,15.48631088,.0001543,96.9169,191.6461,136.6942,223.4431,0,U,41771,999,54574,.24404E-3,.12955E-3,0
SKYSAT-C5,2016-058C,2026-06-18T23:52:52.632768,15.34491256,.00009353,97.0465,210.5550,298.2824,61.8326,0,U,41772,999,54402,.18428085E-3,.6082E-4,0
SKYSAT-C2,2016-058D,2026-06-18T19:36:05.225760,15.42100866,.00045693,97.0165,191.8504,67.4437,292.7294,0,U,41773,999,54530,.22904226E-3,.9719E-4,0
SKYSAT-C3,2016-058E,2026-06-19T01:50:46.961088,15.52607591,.00014261,96.9000,200.8504,99.1434,260.9982,0,U,41774,999,54640,.30565765E-3,.18719E-3,0
ALSAT-1B,2016-059C,2026-06-19T06:41:52.554336,14.72277421,.00082329,97.7745,178.9527,212.4665,147.6038,0,U,41785,999,52088,.94201144E-4,.548E-5,0
PATHFINDER 1,2016-059E,2026-06-19T06:00:01.048896,14.67665129,.00279633,97.8166,169.4332,196.8655,163.1624,0,U,41787,999,52001,.83305205E-4,.43E-5,0
SCATSAT 1,2016-059H,2026-06-19T04:11:20.543712,14.79529120,.0053464,98.1190,233.9612,240.9347,118.6503,0,U,41790,999,10188,.11867846E-3,.851E-5,0
GOKTURK 1A,2016-073A,2026-06-19T07:08:54.822336,14.62776621,.00014393,98.1247,64.9395,73.8443,286.2917,0,U,41875,999,50913,.10123939E-3,.47E-5,0
RESOURCESAT-2A,2016-074A,2026-06-19T06:03:48.316320,14.21617766,.00033018,98.7526,243.7404,81.0045,279.1506,0,U,41877,999,49459,.14882712E-3,.282E-5,0
CARTOSAT-2D,2017-008A,2026-06-19T07:58:03.917856,15.19215066,.00039548,97.4100,229.5986,224.5854,135.5063,0,U,41948,999,51790,.8973126E-5,.122E-5,0
SENTINEL-2B,2017-013A,2026-06-19T07:19:46.040736,14.30817804,.0001188,98.5690,245.0503,88.2703,271.8616,0,U,42063,999,48494,.6085247E-4,.116E-5,0
CARTOSAT-2E,2017-036C,2026-06-19T06:48:49.920768,15.19267590,.00022529,97.4269,230.0519,309.7065,50.3971,0,U,42767,999,49846,.12579802E-3,.2585E-4,0
FORMOSAT-5,2017-049A,2026-06-19T06:14:00.557952,14.50899507,.00126535,98.2254,245.5235,78.6195,281.6420,0,U,42920,999,46697,.37785895E-4,.106E-5,0
SENTINEL-5P,2017-064A,2026-06-19T05:54:12.232224,14.19519252,.00009957,98.7925,112.3626,87.0161,273.1129,0,U,42969,999,44985,.3767602E-4,.35E-6,0
SKYSAT-C11,2017-068A,2026-06-18T22:04:45.057216,15.57969641,.000057,97.4361,318.8258,96.3617,263.7704,0,U,42987,999,48351,.28508E-3,.21245E-3,0
SKYSAT-C10,2017-068B,2026-06-19T04:23:53.245824,15.34665867,.00011097,97.4514,307.0495,99.6985,260.4384,0,U,42988,999,48266,.22665877E-3,.7533E-4,0
SKYSAT-C9,2017-068C,2026-06-19T07:35:11.069376,15.41606942,.0009454,97.4434,308.1389,126.3747,233.8373,0,U,42989,999,48308,.27627804E-3,.11557E-3,0
SKYSAT-C8,2017-068D,2026-06-18T21:23:16.185984,15.37002946,.0001447,97.4532,306.5607,95.7515,264.3894,0,U,42990,999,48257,.22675E-3,.8125E-4,0
SKYSAT-C7,2017-068E,2026-06-18T21:14:09.565152,15.36953935,.0007195,97.4543,307.5440,101.8108,258.3943,0,U,42991,999,48263,.23147E-3,.8289E-4,0
SKYSAT-C6,2017-068F,2026-06-19T02:28:55.174368,15.34237733,.00045099,97.4577,307.7282,132.7401,227.4222,0,U,42992,999,48261,.22512079E-3,.7382E-4,0
CARTOSAT-2F,2018-004A,2026-06-19T07:35:14.795808,15.19225599,.00009492,97.4778,229.9304,198.4033,161.7167,0,U,43111,999,46765,.10471748E-3,.2137E-4,0
GAOFEN-1 02,2018-031A,2026-06-19T07:57:31.366656,14.76458477,.00036613,98.0522,232.8531,28.7853,331.3558,0,U,43259,999,44301,.66982083E-4,.414E-5,0
GAOFEN-1 03,2018-031B,2026-06-19T07:26:01.917024,14.76471673,.00036936,98.0517,232.6893,74.8550,285.3068,0,U,43260,999,44300,.84619656E-4,.537E-5,0
GAOFEN-1 04,2018-031D,2026-06-19T06:51:06.289344,14.76437934,.0002181,98.0524,232.8563,75.9847,284.1605,0,U,43262,999,44299,.12901148E-3,.846E-5,0
SENTINEL-3B,2018-039A,2026-06-19T03:40:49.185984,14.26735196,.00007179,98.6248,237.6575,92.4527,267.6735,0,U,43437,999,42440,.47868419E-4,.72E-6,0
GAOFEN-5 01,2018-043A,2026-06-18T21:52:22.020672,14.60606556,.0003028,98.4569,141.5337,80.5544,279.5998,0,U,43461,999,43194,.62008E-4,.252E-5,0
GAOFEN-6,2018-048A,2026-06-19T07:22:36.533856,14.76600497,.00118013,97.9706,233.0275,158.7359,201.4343,0,U,43484,999,43370,.24920755E-3,.1691E-4,0
